KUIPER-00074            
1 64821U 25151F   25230.91417533  .00034707  00000+0  98476-3 0  9997
2 64821  51.8786 125.3746 0004448 264.2614  95.7865 15.35886465  5164
KUIPER-00075            
1 64822U 25151G   25230.90803663  .00040624  00000+0  11177-2 0  9997
2 64822  51.8801 125.3453 0004320 257.6183 102.4320 15.36771881  5162
KUIPER-00076            
1 64823U 25151H   25230.91672035  .00030179  00000+0  86084-3 0  9990
2 64823  51.8770 125.3915 0004704 259.5345 100.5111 15.35788890  5162
KUIPER-00077            
1 64824U 25151J   25230.98432465  .00034440  00000+0  98064-3 0  9995
2 64824  51.8794 125.1042 0005883 271.6963  88.3350 15.35772983  5162
KUIPER-00078            
1 64825U 25151K   25230.91858302  .00027374  00000+0  78206-3 0  9995
2 64825  51.8780 125.4080 0005400 275.8744  84.1627 15.35788958  5161
KUIPER-00079            
1 64826U 25151L   25230.91668981 -.00011431  00000+0 -39720-3 0  9995
2 64826  51.8792 125.6067 0005103 271.9445 332.5802 15.28247465  4706
KUIPER-00080            
1 64827U 25151M   25230.93516447  .00011284  00000+0  39124-3 0  9999
2 64827  51.8788 125.5368 0002968 290.8932  69.1733 15.30281619  5161
KUIPER-00082            
1 64828U 25151N   25230.90885505  .00012465  00000+0  35829-3 0  9991
2 64828  51.8794 125.3442 0004900 257.6941 102.3497 15.36181843  5160
KUIPER-00083            
1 64829U 25151P   25230.91723998  .00039497  00000+0  11195-2 0  9993
2 64829  51.8754 125.3930 0005130 266.4867  93.5532 15.35854217  6354
KUIPER-00084            
1 64830U 25151Q   25231.00002315 -.00004761  00000+0 -22320-3 0  9990
2 64830  51.8893 126.5785 0006954 254.5507 121.6429 15.16826720  5157
KUIPER-00085            
1 64831U 25151R   25230.90607201  .00031925  00000+0  89360-3 0  9991
2 64831  51.8793 125.3273 0005516 251.7898 108.2489 15.36347464  5164
KUIPER-00086            
1 64832U 25151S   25231.58335648  .00060198  00000+0  17808-2 0  9991
2 64832  51.8788 122.2537 0006111 274.8964 133.2614 15.34316602  5256
KUIPER-00087            
1 64833U 25151T   25230.97627032  .00017222  00000+0  49291-3 0  9997
2 64833  51.8790 125.0482 0004980 256.2402 103.8030 15.36032908  5175
KUIPER-00089            
1 64834U 25151U   25230.98249394  .00039210  00000+0  11125-2 0  9995
2 64834  51.8796 125.0916 0005883 270.8864  89.1448 15.35822268  5175
KUIPER-00090            
1 64835U 25151V   25230.92239910  .00028033  00000+0  80631-3 0  9993
2 64835  51.8761 125.4326 0005960 281.3636  78.6680 15.35561448  5156
KUIPER-00091            
1 64836U 25151W   25230.97323917  .00028115  00000+0  79375-3 0  9994
2 64836  51.8795 125.0250 0005698 251.5203 108.5164 15.36144557  5174
KUIPER-00092            
1 64837U 25151X   25231.10659976  .00018217  00000+0  51917-3 0  9992
2 64837  51.8788 124.4153 0005419 264.2670  95.7698 15.36122227  6408
KUIPER-00093            
1 64838U 25151Y   25231.11169786  .00033413  00000+0  95024-3 0  9991
2 64838  51.8799 124.4596 0005050 271.9146  88.1262 15.35829858  5197
KUIPER-00094            
1 64839U 25151Z   25230.13042085  .00025222  00000+0  71611-3 0  9990
2 64839  51.8767 129.1226 0005493 266.8577  93.1780 15.36029082  5279
KUIPER-00081            
1 65132U 25171A   25231.25003472  .00064708  00000+0  18354-2 0  9996
2 65132  51.8772   7.4017 0006349 149.4049 131.5891 15.35603913  1916
KUIPER-00088            
1 65133U 25171B   25231.16668981  .00037491  00000+0  10739-2 0  9997
2 65133  51.8775   7.8098 0006052 150.5707  27.4231 15.35544371  1359
KUIPER-00095            
1 65134U 25171C   25231.16668981  .00036241  00000+0  10570-2 0  9993
2 65134  51.8768   7.8391 0005500 173.9180 348.1049 15.34997048  1351
KUIPER-00096            
1 65135U 25171D   25231.58335648 -.00007789  00000+0 -21311-3 0  9994
2 65135  51.8766   5.8176 0005467 165.1333 147.4788 15.35263230  2276
KUIPER-00097            
1 65136U 25171E   25231.16668981  .00037256  00000+0  10883-2 0  9999
2 65136  51.8768   7.8428 0005546 176.3822 343.8143 15.34934721  1439
KUIPER-00098            
1 65137U 25171F   25231.16668981  .00037143  00000+0  10611-2 0  9994
2 65137  51.8773   7.8020 0006439 149.3263  31.4942 15.35630333  1581
KUIPER-00099            
1 65138U 25171G   25231.16668981  .00039134  00000+0  11229-2 0  9993
2 65138  51.8775   7.8149 0006177 154.3541  21.1037 15.35469576  1401
KUIPER-00100            
1 65139U 25171H   25231.16668981  .00036844  00000+0  10639-2 0  9993
2 65139  51.8767   7.8194 0005887 159.8057  10.9525 15.35301402  1706
KUIPER-00102            
1 65140U 25171J   25231.16668981  .00036398  00000+0  10621-2 0  9990
2 65140  51.8764   7.8353 0005354 169.9485 353.1003 15.34980169  2210
KUIPER-00103            
1 65141U 25171K   25231.16668981  .00039032  00000+0  11312-2 0  9997
2 65141  51.8765   7.8280 0005452 167.4868 359.1164 15.35161171  2105
KUIPER-00104            
1 65142U 25171L   25231.58335648 -.00004855  00000+0 -12861-3 0  9993
2 65142  51.8779   5.8217 0005238 161.5196 152.1595 15.35270120  1417
KUIPER-00105            
1 65143U 25171M   25231.58335648 -.00007367  00000+0 -19790-3 0  9993
2 65143  51.8774   5.7914 0006539 149.0574 177.8906 15.35721860  2336
KUIPER-00106            
1 65144U 25171N   25231.16668981  .00038547  00000+0  11101-2 0  9996
2 65144  51.8768   7.8156 0006028 158.5234  14.0878 15.35363107  1371
KUIPER-00107            
1 65145U 25171P   25231.16668981  .00037434  00000+0  10801-2 0  9997
2 65145  51.8778   7.8239 0006028 160.1172  11.5306 15.35317548  1359
KUIPER-00108            
1 65146U 25171Q   25231.58335648 -.00005359  00000+0 -14397-3 0  9993
2 65146  51.8780   5.8340 0005846 174.2183 133.2625 15.35082204  1612
KUIPER-00109            
1 65147U 25171R   25231.16668981  .00041741  00000+0  11952-2 0  9993
2 65147  51.8772   7.8052 0006326 154.9405  23.3589 15.35504596  1804
KUIPER-00110            
1 65148U 25171S   25231.58335648 -.00007336  00000+0 -19888-3 0  9992
2 65148  51.8777   5.8119 0006066 156.5862 161.6067 15.35438932  1850
KUIPER-00111            
1 65149U 25171T   25231.25003472  .00063321  00000+0  18249-2 0  9997
2 65149  51.8778   7.4320 0005493 169.6225  97.8073 15.35118740  1360
KUIPER-00112            
1 65150U 25171U   25231.58335648 -.00005994  00000+0 -16327-3 0  9998
2 65150  51.8777   5.8422 0006052 181.1994 121.3471 15.34910564  2279
KUIPER-00114            
1 65151U 25171V   25231.58335648 -.00007926  00000+0 -21841-3 0  9993
2 65151  51.8773   5.8306 0005991 172.1331 135.4911 15.35069901  1706
KUIPER-00115            
1 65152U 25171W   25231.58335648 -.00006812  00000+0 -18372-3 0  9992
2 65152  51.8770   5.8046 0006091 155.8524 163.2146 15.35466644  1769
KUIPER-00116            
1 65153U 25171X   25231.16668981  .00037714  00000+0  10926-2 0  9995
2 65153  51.8779   7.8336 0005658 170.3411 356.4509 15.35188086  1409
KUIPER-00118            
1 65154U 25171Y   25231.58335648 -.00006613  00000+0 -18077-3 0  9995
2 65154  51.8775   5.8371 0005438 176.3580 128.7200 15.35003023  2464
KUIPER-00119            
1 65155U 25171Z   25231.16668981  .00040270  00000+0  11516-2 0  9994
2 65155  51.8772   7.8019 0006540 154.0590  26.1433 15.35560093  1588
